INTELSAT 10 (IS-10)     
1 26766U 01019A   26022.42670001 -.00000230  00000+0  00000+0 0  9994
2 26766   8.7248  60.7395 0008307 244.7321 293.4200  0.99076733 44135
INTELSAT 902 (IS-902)   
1 26900U 01039A   26022.49534042 -.00000271  00000+0  00000+0 0  9992
2 26900   5.7497  73.5810 0004484 233.3447 303.1243  1.00271976 89232
INTELSAT 904 (IS-904)   
1 27380U 02007A   26022.49898044 -.00000213  00000+0  00000+0 0  9992
2 27380   6.5544  70.9506 0003494 280.9217 278.1045  1.00271922 50301
DIRECTV 5 (TEMPO 1)     
1 27426U 02023A   26022.69742105 -.00000044  00000+0  00000+0 0  9991
2 27426   4.5046  77.1557 0003330 232.5296 313.3002  1.00271543 86663
INTELSAT 905 (IS-905)   
1 27438U 02027A   26022.76337478  .00000106  00000+0  00000+0 0  9997
2 27438   6.3865  71.5695 0002962 236.3408 311.8046  1.00272719 49906
GALAXY 3C (G-3C)        
1 27445U 02030A   26022.55782744 -.00000139  00000+0  00000+0 0  9993
2 27445   3.3625  80.0352 0000823  76.8155  71.0207  1.00271504 45035
INTELSAT 906 (IS-906)   
1 27513U 02041A   26022.87316884  .00000026  00000+0  00000+0 0  9998
2 27513   5.4341  74.7322 0005118 213.7106 212.2403  1.00271657 85575
GALAXY 13 (HORIZONS-1)  
1 27954U 03044A   26022.76086143  .00000147  00000+0  00000+0 0  9995
2 27954   1.0428  85.9362 0002190 218.6547 301.3813  1.00272448 45110
INTELSAT 10-02          
1 28358U 04022A   26022.79033948  .00000004  00000+0  00000+0 0  9991
2 28358   0.0181  68.1859 0001294 262.4908  75.0154  1.00270754 79095
XM-3 (RHYTHM)           
1 28626U 05008A   26022.63201456 -.00000050  00000+0  00000+0 0  9990
2 28626   0.2784  83.5009 0003612 280.6186 265.4815  0.98950738 41156
DIRECTV 8               
1 28659U 05019A   26022.86126944  .00000016  00000+0  00000+0 0  9992
2 28659   0.0148  75.1437 0003027 234.4841   3.5821  1.00270879 75612
GALAXY 28 (G-28)        
1 28702U 05022A   26022.85213318 -.00000250  00000+0  00000+0 0  9997
2 28702   2.9250  80.7896 0002330 200.6460  98.3669  1.00589620 50516
GALAXY 16 (G-16)        
1 29236U 06023A   26022.62828787 -.00000112  00000+0  00000+0 0  9996
2 29236   0.0398 208.1827 0002631  93.5455 307.4102  1.00271806 71511
DIRECTV 9S              
1 29494U 06043A   26022.62785454 -.00000099  00000+0  00000+0 0  9991
2 29494   2.0437  82.7518 0002981 221.7585 302.2779  1.00271396 49920
GALAXY 17 (G-17)        
1 31307U 07016B   26022.63106122 -.00000193  00000+0  00000+0 0  9993
2 31307   2.6014  81.7981 0004966 199.0467 343.3211  1.00271198 68341
DIRECTV 10              
1 31862U 07032A   26022.62759453 -.00000088  00000+0  00000+0 0  9990
2 31862   0.0324 119.1532 0000346 134.2839 351.6771  1.00271529 44135
INTELSAT 11 (IS-11)     
1 32253U 07044B   26022.87076662  .00000074  00000+0  00000+0 0  9993
2 32253   3.1852  80.4966 0007569 185.3173 214.6487  0.99048056 67011
HORIZONS-2              
1 32388U 07063B   26022.84727983 -.00000240  00000+0  00000+0 0  9995
2 32388   2.2259  82.4949 0003915 211.1956  59.7253  1.00272568 66357
DIRECTV 11              
1 32729U 08013A   26022.62828787 -.00000110  00000+0  00000+0 0  9996
2 32729   0.0021 259.7047 0000152 211.9824 137.2836  1.00266491 44138
GALAXY 18 (G-18)        
1 32951U 08024A   26022.69490770  .00000000  00000+0  00000+0 0  9996
2 32951   0.0149  68.6030 0003085 237.0340 303.5578  1.00269647 44390
INTELSAT 25 (IS-25)     
1 33153U 08034A   26022.97554915 -.00000210  00000+0  00000+0 0  9999
2 33153   2.3318  82.1693 0004671 211.5006 148.3442  1.00270318 64239
GALAXY 19 (G-19)        
1 33376U 08045A   26022.62854787 -.00000124  00000+0  00000+0 0  9994
2 33376   0.0533 254.0733 0002664  45.8709 311.2907  1.00271029 63442
FM-5                    
1 35493U 09034A   26022.63080122 -.00000185  00000+0  00000+0 0  9997
2 35493   0.0426 250.9122 0000831 291.2842  80.7055  1.00271199 45182
INTELSAT 14 (IS-14)     
1 36097U 09064A   26022.85299986 -.00000259  00000+0  00000+0 0  9997
2 36097   0.0109  67.9384 0002395 230.2444  86.0839  1.00273615 59140
INTELSAT 15 (IS-15)     
1 36106U 09067A   26022.80741291  .00000000  00000+0  00000+0 0  9990
2 36106   0.0150  56.5773 0002569 265.2692 176.1281  1.00269653 39775
DIRECTV 12              
1 36131U 09075A   26022.48494035 -.00000089  00000+0  00000+0 0  9990
2 36131   0.0071 105.1889 0000400 271.4310 177.0757  1.00271336 45093
INTELSAT 16 (IS-16)     
1 36397U 10006A   26022.77550819  .00000000  00000+0  00000+0 0  9997
2 36397   0.0192  52.6733 0002216 242.0638  30.3730  1.00269754 58197
XM-5                    
1 37185U 10053A   26022.69638104 -.00000008  00000+0  00000+0 0  9999
2 37185   0.0643 263.4766 0002804 257.2314  96.8168  1.00270560 56023
INTELSAT 17 (IS-17)     
1 37238U 10065B   26022.85947387  .00000013  00000+0  00000+0 0  9990
2 37238   0.0054  88.1001 0002457 214.8700 194.6258  1.00271409 51793
INTELSAT 28 (IS-28)     
1 37392U 11016A   26022.85559987 -.00000211  00000+0  00000+0 0  9994
2 37392   1.4288  84.5798 0004023 214.2569  99.6667  1.00271207 51827
INTELSAT 18 (IS-18)     
1 37834U 11056A   26022.75488139  .00000068  00000+0  00000+0 0  9997
2 37834   0.0442 254.9551 0001912  53.8311 265.0669  1.00272785 52353
INTELSAT 22 (IS-22)     
1 38098U 12011A   26022.84836699 -.00000044  00000+0  00000+0 0  9995
2 38098   0.0044   5.8599 0001677 301.8019 192.0176  1.00272377  5737
INTELSAT 19 (IS-19)     
1 38356U 12030A   26022.82344634 -.00000042  00000+0  00000+0 0  9992
2 38356   0.0186  74.7431 0003095 235.0941 274.7634  1.00271372 48995
INTELSAT 20 (IS-20)     
1 38740U 12043A   26022.85947387 -.00000009  00000+0  00000+0 0  9993
2 38740   0.0184  86.9286 0001586  67.0515 346.1068  1.00269234 49299
INTELSAT 21 (IS-21)     
1 38749U 12045A   26022.77907275 -.00000270  00000+0  00000+0 0  9997
2 38749   0.0174  77.8497 0001860 225.5620  41.1676  1.00272191 49061
INTELSAT 23 (IS-23)     
1 38867U 12057A   26022.78002609  .00000000  00000+0  00000+0 0  9999
2 38867   0.0145 261.2771 0002231  39.4534  49.2056  1.00263016 48496
FM-6                    
1 39360U 13058A   26022.69620771 -.00000002  00000+0  00000+0 0  9999
2 39360   0.0315  92.5222 0003176  87.3845  76.5512  1.00272597 44610
INTELSAT 30 (IS-30)     
1 40271U 14062A   26022.48641369 -.00000136  00000+0  00000+0 0  9999
2 40271   0.0139  55.3074 0001351  44.1756 102.3839  1.00273902  5331
DIRECTV 14              
1 40333U 14078B   26022.62828787  .00000000  00000+0  00000+0 0  9991
2 40333   0.0208  68.1037 0000550 131.3273  49.5100  1.00268276 40588
DIRECTV 15              
1 40663U 15026A   26022.69872105 -.00000087  00000+0  00000+0 0  9997
2 40663   0.0130  77.8025 0000478  82.4957 110.3765  1.00268637 39006
SKY MEXICO-1            
1 40664U 15026B   26022.56094747 -.00000220  00000+0  00000+0 0  9991
2 40664   0.0173  58.7520 0002006 244.6480 301.6879  1.00272352 38991
INTELSAT 34 (IS-34)     
1 40874U 15039A   26022.85091985 -.00000271  00000+0  00000+0 0  9997
2 40874   0.0161   3.4687 0000538 183.7966 185.7332  1.00269224 38160
INTELSAT 31 (IS-31)     
1 41581U 16035A   26022.55774077 -.00000136  00000+0  00000+0 0  9997
2 41581   0.0090 289.7552 0001989 288.8864   8.9790  1.00273040 35221
INTELSAT 36 (IS-36)     
1 41747U 16053A   26022.09080953 -.00000011  00000+0  00000+0 0  9995
2 41747   0.0108  42.4580 0001572 291.3068 248.8665  1.00277278 34483
INTELSAT 32E (IS-32E)   
1 41945U 17007B   26022.55574083 -.00000254  00000+0  00000+0 0  9997
2 41945   0.0199  82.7362 0000949 342.3731 213.6677  1.00280743 32762
INTELSAT 35E (IS-35E)   
1 42818U 17041A   26022.85507987  .00000000  00000+0  00000+0 0  9995
2 42818   0.0229  82.8690 0002129 219.7561  92.9077  1.00270799 31357
INTELSAT 37E (IS-37E)   
1 42950U 17059A   26022.85837322  .00000000  00000+0  00000+0 0  9990
2 42950   0.0220  79.9746 0002853 209.9416 123.3075  1.00270542 30608
AZERSPACE 2 (IS-38)     
1 43632U 18074A   26022.08630284  .00000000  00000+0  00000+0 0  9999
2 43632   0.0248  72.6145 0001363 232.8260 252.1793  1.00270076 26982
HORIZONS-3E             
1 43633U 18074B   26022.60947742  .00000000  00000+0  00000+0 0  9998
2 43633   0.0128 206.3903 0000537 136.8350 167.1455  1.00269397 26886
AT&T T-16               
1 44333U 19034A   26022.69906773 -.00000100  00000+0  00000+0 0  9993
2 44333   0.0222  82.9630 0001030  79.2835 110.5819  1.00270499 24172
INTELSAT 39 (IS-39)     
1 44476U 19049B   26022.51752721  .00000048  00000+0  00000+0 0  9990
2 44476   0.0174  78.7042 0001002  81.2948 210.1028  1.00269957 23662
GALAXY 30 (G-30)        
1 46114U 20056C   26022.69447436  .00000000  00000+0  00000+0 0  9992
2 46114   0.0174  69.5620 0002188 237.9579 299.5291  1.00269609 19830
GALAXY 33 (G-33)        
1 54026U 22128A   26022.82549022  .00000000  00000+0  00000+0 0  9994
2 54026   0.0181  53.5497 0001923 248.5574 344.2394  1.00270191 12285
GALAXY 34 (G-34)        
1 54027U 22128B   26022.69369436  .00000074  00000+0  00000+0 0  9990
2 54027   0.0154  49.0529 0001435 256.5199 297.1686  1.00271257 12455
GALAXY 31 (G-31)        
1 54243U 22153A   26022.69525436  .00000000  00000+0  00000+0 0  9991
2 54243   0.0162 108.7547 0001611 201.1237 301.4593  1.00269687  5678
GALAXY 32 (G-32)        
1 54244U 22153B   26022.41586661 -.00000160  00000+0  00000+0 0  9997
2 54244   0.0125  52.5375 0002543 278.6028 209.3241  1.00272234 11681
GALAXY 35 (G-35)        
1 54741U 22170A   26022.84346647 -.00000147  00000+0  00000+0 0  9998
2 54741   0.0340 218.0097 0002134  85.2909  29.4196  1.00270651 11432
GALAXY 36 (G-36)        
1 54742U 22170B   26022.84424648 -.00000171  00000+0  00000+0 0  9994
2 54742   0.0179 114.3752 0000971 259.0712 323.6596  1.00272311 11314
GALAXY 37 (G-37)        
1 57493U 23112A   26022.69404103  .00000063  00000+0  00000+0 0  9993
2 57493   0.0151  59.1967 0002051 247.2243 298.4474  1.00271690  9087
